{"fetched_at":"2026-03-29T16:36:15Z","count":15609,"tles":[{"name":"STARLINK-32618","line1":"1 62045U 24216P   26087.84876073  .00018826  00000+0  69141-3 0  9996","line2":"2 62045  42.9969 148.2991 0002078 278.6450  81.4166 15.27602404 76809","category":"Starlink"}]}