{
  "norad_id": 62045,
  "name": "STARLINK-32618",
  "history": [
    {
      "epoch": "2026-03-28T20:22:12.927072",
      "apogee_km": 484.40788897667517,
      "perigee_km": 481.5561334708509,
      "latitude_deg": 41.61207723102786,
      "longitude_deg": 105.9810300800018,
      "semi_major_axis_km": 6861.119011223763,
      "eccentricity": 0.00020782,
      "inclination_deg": 42.9969,
      "raan_deg": 148.2991,
      "arg_perigee_deg": 278.645,
      "mean_anomaly_deg": 81.4166,
      "mean_motion_rev_day": 15.27602404
    }
  ]
}